OBJECT_NAME,OBJECT_ID,EPOCH,MEAN_MOTION,ECCENTRICITY,INCLINATION,RA_OF_ASC_NODE,ARG_OF_PERICENTER,MEAN_ANOMALY,EPHEMERIS_TYPE,CLASSIFICATION_TYPE,NORAD_CAT_ID,ELEMENT_SET_NO,REV_AT_EPOCH,BSTAR,MEAN_MOTION_DOT,MEAN_MOTION_DDOT
STARLINK-37727,2026-131D,2026-06-30T11:30:34.178400,15.80890623,.00033322,97.2834,202.5329,54.2295,305.9282,0,U,69481,999,426,.16690568E-2,.333245E-2,0
STARLINK-37814,2026-131E,2026-06-30T16:00:01.998720,15.80869195,.0001303,97.2843,202.7337,96.7733,251.8918,0,U,69482,999,417,-.4973E-3,-.94604E-3,0
STARLINK-37869,2026-131F,2026-06-30T20:00:01.999008,15.80832572,.0001142,97.2843,202.9124,99.2899,121.5175,0,U,69483,999,420,-.17064E-3,-.3273E-3,0
STARLINK-37873,2026-131G,2026-06-30T19:03:16.507584,15.80873126,.000263,97.2835,202.8709,164.3345,195.8005,0,U,69484,999,431,.15465E-2,.307579E-2,0
STARLINK-37892,2026-131H,2026-06-30T19:01:27.117408,15.82234548,.0004464,97.2838,202.8725,239.7136,120.3691,0,U,69485,999,431,.34935E-2,.781413E-2,0
STARLINK-37893,2026-131J,2026-06-30T08:22:50.289024,15.80821013,.0000856,97.2835,202.4051,87.9039,272.2327,0,U,69486,999,424,.10036E-2,.196529E-2,0
STARLINK-37842,2026-131K,2026-06-29T23:14:49.724448,15.80894566,.00007846,97.2838,202.0036,140.8626,219.2699,0,U,69487,999,418,.10599054E-2,.208554E-2,0
STARLINK-37449,2026-131L,2026-06-30T18:58:45.159744,15.80894438,.0001239,97.2846,202.8755,64.2926,295.8470,0,U,69488,999,431,.11067E-2,.218013E-2,0
STARLINK-37831,2026-131M,2026-06-30T00:43:49.412064,15.80836109,.00009178,97.2831,202.0728,32.0008,328.1316,0,U,69489,999,419,.63915966E-3,.124156E-2,0
STARLINK-37879,2026-131N,2026-06-30T00:42:44.313984,15.80851503,.0001015,97.2830,202.0742,32.4432,327.6899,0,U,69490,999,419,.90483104E-3,.177023E-2,0
STARLINK-37856,2026-131P,2026-06-30T11:31:49.514016,15.80962726,.00026337,97.2857,202.5313,317.7741,42.3324,0,U,69491,999,426,.13337754E-2,.265038E-2,0
STARLINK-37568,2026-131Q,2026-06-30T00:40:34.450464,15.80889037,.00007537,97.2829,202.0764,30.0634,330.0677,0,U,69492,999,419,.11954742E-2,.235936E-2,0
STARLINK-37855,2026-131R,2026-06-30T20:00:01.999008,15.80823906,.0001438,97.2842,202.9135,92.3105,131.9659,0,U,69493,999,426,-.15414E-3,-.29578E-3,0
STARLINK-37854,2026-131S,2026-06-30T20:00:01.999008,15.80824309,.0001403,97.2842,202.9106,79.9364,137.6743,0,U,69494,999,426,-.1949E-3,-.3733E-3,0
STARLINK-37789,2026-131T,2026-06-30T20:22:19.706880,15.80883092,.000103,97.2840,202.9490,84.6572,275.4813,0,U,69495,999,306,.11898E-2,.234725E-2,0
STARLINK-37839,2026-131U,2026-06-30T15:59:08.415168,15.80905809,.0000242,97.2839,202.7402,117.2815,242.8478,0,U,69496,999,303,.13979E-2,.277463E-2,0
STARLINK-37798,2026-131V,2026-06-30T00:36:14.872032,15.80851764,.0001043,97.2823,202.0805,34.2809,325.8526,0,U,69497,999,293,.86483E-3,.169036E-2,0
STARLINK-37853,2026-131W,2026-06-30T20:15:50.143104,15.80894467,.0001166,97.2837,202.9563,81.3044,278.8357,0,U,69498,999,306,.1066E-2,.209772E-2,0
STARLINK-37849,2026-131X,2026-06-30T12:41:09.276576,15.80988551,.0001589,97.2836,202.6196,33.3073,326.8295,0,U,69499,999,301,.17747E-2,.356871E-2,0
STARLINK-37835,2026-131Y,2026-06-30T12:43:19.010496,15.80969992,.00013554,97.2835,202.6183,17.5455,342.5860,0,U,69500,999,301,.15607197E-2,.311936E-2,0
STARLINK-37843,2026-131Z,2026-06-30T20:18:00.193248,15.80901834,.0001347,97.2831,202.9535,104.9717,255.1701,0,U,69501,999,306,.13729E-2,.272277E-2,0
STARS-X,2026-132A,2026-06-30T20:08:04.002144,14.99072094,.0013433,97.6884,245.3337,218.5520,141.4745,0,U,69502,999,282,.11938E-3,.1392E-4,0
2026-132B,2026-132B,2026-06-30T18:30:21.713760,14.99155612,.0013329,97.6915,245.2767,220.9649,139.0573,0,U,69503,999,281,.10006E-3,.116E-4,0
BRO-22,2026-132C,2026-06-30T18:19:10.504992,14.99775947,.001511,97.6846,245.2700,233.6703,126.3126,0,U,69504,999,281,.83311E-4,.972E-5,0
HORN-L,2026-132D,2026-06-29T06:11:11.565600,15.05986778,.00200449,97.6856,243.8572,250.8339,109.0718,0,U,69505,999,259,.25851412E-3,.3719E-4,0
VERTECS,2026-132E,2026-06-30T14:46:52.075200,15.00934841,.0013856,97.6868,245.1664,256.3972,103.5709,0,U,69506,999,278,.19679E-3,.2452E-4,0
HORN-R,2026-132F,2026-06-30T03:12:45.131616,15.03581917,.00163188,97.6887,244.7087,253.9564,105.9865,0,U,69507,999,271,.12221929E-3,.1612E-4,0
STARLINK-37536,2026-133A,2026-06-28T17:42:39.007872,15.80765474,.0001421,53.1587,264.2217,55.3831,304.7325,0,U,69508,999,259,.50109289E-4,.9153E-4,0
STARLINK-37341,2026-133B,2026-06-30T20:00:01.999008,15.68943438,.0000832,53.1584,253.7921,63.6422,314.5418,0,U,69509,999,416,-.25458E-1,-.2596112E-1,0
STARLINK-36536,2026-133C,2026-06-30T19:39:22.813056,15.80929198,.0001655,53.1586,253.7340,52.8876,307.2297,0,U,69510,999,293,.76038E-3,.15245E-2,0
