STARLINK-37727          
1 69481U 26131D   26181.47956225  .00333245  00000+0  16691-2 0  9993
2 69481  97.2834 202.5329 0003332  54.2295 305.9282 15.80890623  4267
STARLINK-37814          
1 69482U 26131E   26181.66668980 -.00094604  00000+0 -49730-3 0  9999
2 69482  97.2843 202.7337 0001303  96.7733 251.8918 15.80869195  4178
STARLINK-37869          
1 69483U 26131F   26181.83335647 -.00032730  00000+0 -17064-3 0  9997
2 69483  97.2843 202.9124 0001142  99.2899 121.5175 15.80832572  4208
STARLINK-37873          
1 69484U 26131G   26181.79394106  .00307579  00000+0  15465-2 0  9994
2 69484  97.2835 202.8709 0002630 164.3345 195.8005 15.80873126  4319
STARLINK-37892          
1 69485U 26131H   26181.79267497  .00781413  00000+0  34935-2 0  9993
2 69485  97.2838 202.8725 0004464 239.7136 120.3691 15.82234548  4318
STARLINK-37893          
1 69486U 26131J   26181.34919316  .00196529  00000+0  10036-2 0  9993
2 69486  97.2835 202.4051 0000856  87.9039 272.2327 15.80821013  4242
STARLINK-37842          
1 69487U 26131K   26180.96863107  .00208554  00000+0  10599-2 0  9993
2 69487  97.2838 202.0036 0000784 140.8626 219.2699 15.80894566  4185
STARLINK-37449          
1 69488U 26131L   26181.79080046  .00218013  00000+0  11067-2 0  9991
2 69488  97.2846 202.8755 0001239  64.2926 295.8470 15.80894438  4319
STARLINK-37831          
1 69489U 26131M   26181.03043301  .00124156  00000+0  63916-3 0  9997
2 69489  97.2831 202.0728 0000917  32.0008 328.1316 15.80836109  4198
STARLINK-37879          
1 69490U 26131N   26181.02967956  .00177023  00000+0  90483-3 0  9999
2 69490  97.2830 202.0742 0001015  32.4432 327.6899 15.80851503  4195
STARLINK-37856          
1 69491U 26131P   26181.48043419  .00265038  00000+0  13338-2 0  9996
2 69491  97.2857 202.5313 0002633 317.7741  42.3324 15.80962726  4265
STARLINK-37568          
1 69492U 26131Q   26181.02817651  .00235936  00000+0  11955-2 0  9991
2 69492  97.2829 202.0764 0000753  30.0634 330.0677 15.80889037  4190
STARLINK-37855          
1 69493U 26131R   26181.83335647 -.00029578  00000+0 -15414-3 0  9991
2 69493  97.2842 202.9135 0001438  92.3105 131.9659 15.80823906  4261
STARLINK-37854          
1 69494U 26131S   26181.83335647 -.00037330  00000+0 -19490-3 0  9995
2 69494  97.2842 202.9106 0001403  79.9364 137.6743 15.80824309  4265
STARLINK-37789          
1 69495U 26131T   26181.84883920  .00234725  00000+0  11898-2 0  9997
2 69495  97.2840 202.9490 0001030  84.6572 275.4813 15.80883092  3060
STARLINK-37839          
1 69496U 26131U   26181.66606962  .00277463  00000+0  13979-2 0  9995
2 69496  97.2839 202.7402 0000242 117.2815 242.8478 15.80905809  3030
STARLINK-37798          
1 69497U 26131V   26181.02517213  .00169036  00000+0  86483-3 0  9993
2 69497  97.2823 202.0805 0001043  34.2809 325.8526 15.80851764  2939
STARLINK-37853          
1 69498U 26131W   26181.84433036  .00209772  00000+0  10660-2 0  9999
2 69498  97.2837 202.9563 0001166  81.3044 278.8357 15.80894467  3066
STARLINK-37849          
1 69499U 26131X   26181.52857959  .00356871  00000+0  17747-2 0  9995
2 69499  97.2836 202.6196 0001589  33.3073 326.8295 15.80988551  3011
STARLINK-37835          
1 69500U 26131Y   26181.53008114  .00311936  00000+0  15607-2 0  9996
2 69500  97.2835 202.6183 0001355  17.5455 342.5860 15.80969992  3019
STARLINK-37843          
1 69501U 26131Z   26181.84583557  .00272277  00000+0  13729-2 0  9997
2 69501  97.2831 202.9535 0001347 104.9717 255.1701 15.80901834  3062
STARS-X                 
1 69502U 26132A   26181.83893521  .00001392  00000+0  11938-3 0  9992
2 69502  97.6884 245.3337 0013433 218.5520 141.4745 14.99072094  2823
2026-132B               
1 69503U 26132B   26181.77108465  .00001160  00000+0  10006-3 0  9990
2 69503  97.6915 245.2767 0013329 220.9649 139.0573 14.99155612  2817
BRO-22                  
1 69504U 26132C   26181.76331603  .00000972  00000+0  83311-4 0  9992
2 69504  97.6846 245.2700 0015110 233.6703 126.3126 14.99775947  2812
HORN-L                  
1 69505U 26132D   26180.25777275  .00003719  00000+0  25851-3 0  9991
2 69505  97.6856 243.8572 0020044 250.8339 109.0718 15.05986778  2597
VERTECS                 
1 69506U 26132E   26181.61588050  .00002452  00000+0  19679-3 0  9998
2 69506  97.6868 245.1664 0013856 256.3972 103.5709 15.00934841  2784
HORN-R                  
1 69507U 26132F   26181.13385569  .00001612  00000+0  12222-3 0  9990
2 69507  97.6887 244.7087 0016318 253.9564 105.9865 15.03581917  2713
STARLINK-37536          
1 69508U 26133A   26179.73795148  .00009153  00000+0  50109-4 0  9998
2 69508  53.1587 264.2217 0001421  55.3831 304.7325 15.80765474  2593
STARLINK-37341          
1 69509U 26133B   26181.83335647 -.02596112  00000+0 -25458-1 0  9993
2 69509  53.1584 253.7921 0000832  63.6422 314.5418 15.68943438  4160
STARLINK-36536          
1 69510U 26133C   26181.81901404  .00152450  00000+0  76038-3 0  9994
2 69510  53.1586 253.7340 0001655  52.8876 307.2297 15.80929198  2934
